EUTELSAT 8 WEST B       
1 40875U 15039B   25265.36290347 -.00000072  00000+0  00000+0 0  9994
2 40875   0.0750  21.8985 0003761 162.1036 300.1441  1.00272650 36978
EUTELSAT 9B             
1 41310U 16005A   25265.58845456  .00000055  00000+0  00000+0 0  9994
2 41310   0.0507  64.6815 0002386 156.2558   1.5905  1.00271603 35439
EUTELSAT 65 WEST A      
1 41382U 16014A   25264.99478840 -.00000285  00000+0  00000+0 0  9992
2 41382   0.0890  50.5911 0002154 134.2560 109.1984  1.00270724 34845
EUTELSAT 117 WEST B     
1 41589U 16038B   25265.21919760 -.00000020  00000+0  00000+0 0  9991
2 41589   0.0327  31.3517 0000097 230.4130  61.4860  1.00272263 33970
EUTELSAT 172B           
1 42741U 17029B   25265.46993729 -.00000012  00000+0  00000+0 0  9998
2 42741   0.0166 168.8038 0000131 264.8933 269.0570  1.00271907 31041
EUTELSAT 7C             
1 44334U 19034B   25265.36576348  .00000041  00000+0  00000+0 0  9990
2 44334   0.0717 186.0987 0003193 339.5111 334.5400  1.00271679  4155
EUTELSAT 5 WEST B       
1 44624U 19067A   25265.22075073 -.00000050  00000+0  00000+0 0  9993
2 44624   0.0730 337.0517 0003102 207.8977 250.8544  1.00272593 21756
EUTELSAT KONNECT        
1 45027U 20005B   25265.36576348  .00000040  00000+0  00000+0 0  9999
2 45027   0.0634  98.4357 0001829  39.7537   2.1549  1.00260061 21643
